O3B FM20                
1 44112U 19020A   26094.05258622 -.00000026  00000+0  00000+0 0  9992
2 44112   0.0529   0.8932 0002667   1.6559 357.4506  5.00115555127859
O3B FM19                
1 44113U 19020B   26094.07968578 -.00000026  00000+0  00000+0 0  9993
2 44113   0.0578 352.7829 0004018  14.9317 352.2900  5.00116074127734
O3B FM17                
1 44114U 19020C   26094.15976581 -.00000026  00000+0  00000+0 0  9996
2 44114   0.0359 348.2880 0002634  21.5684 350.1471  5.00115489127821
O3B FM18                
1 44115U 19020D   26093.90617781 -.00000026  00000+0  00000+0 0  9993
2 44115   0.0533   1.1444 0002731  12.1257 346.7354  5.00115350127937
SALSAT                  
1 46495U 20068K   26093.94381268  .00015678  00000+0  56347-3 0  9999
2 46495  97.8863  92.5537 0009436 192.6370 167.4633 15.28700775304012
O3B MPOWER F1           
1 54755U 22174A   26094.20609994 -.00000026  00000+0  00000+0 0  9999
2 54755   0.0622 349.0208 0005613  42.2667   8.6694  5.00114902 61659
O3B MPOWER F2           
1 54756U 22174B   26094.15057011 -.00000026  00000+0  00000+0 0  9991
2 54756   0.0594 346.2389 0005932  26.2539 347.5204  5.00115558 61741
O3B MPOWER F4           
1 56367U 23059A   26093.81512735 -.00000026  00000+0  00000+0 0  9995
2 56367   0.0642   4.5664 0007014  22.3032 333.1650  5.00116126 54888
O3B MPOWER F3           
1 56368U 23059B   26094.04831837 -.00000026  00000+0  00000+0 0  9999
2 56368   0.0653   4.5393 0006590  12.4195 343.0615  5.00116730 51012
O3B MPOWER F9           
1 64866U 25153A   26094.01652050 -.00000026  00000+0  00000+0 0  9993
2 64866   0.0510  14.9199 0005159  24.4528 320.6631  5.00116246 15851
O3B MPOWER F10          
1 64867U 25153B   26094.18226116 -.00000026  00000+0  00000+0 0  9992
2 64867   0.0516   9.6909 0003614 256.6776  93.5886  5.00115051 18322
